IRIDIUM 112             
1 41925U 17003J   23290.51386115  .00000471  00000+0  16099-3 0  9997
2 41925  86.3961 135.2650 0002419  85.2721 274.8751 14.34219037353749
IRIDIUM 111             
1 41926U 17003K   23290.85002038  .00000389  00000+0  13174-3 0  9993
2 41926  86.3955 135.1734 0001902  80.9322 279.2089 14.34220506353814
IRIDIUM 113             
1 42803U 17039A   23291.45790032  .00000571  00000+0  19676-3 0  9998
2 42803  86.4031   8.6540 0002186  89.2448 270.8998 14.34222372331769
IRIDIUM 123             
1 42804U 17039B   23291.56915240  .00000610  00000+0  21091-3 0  9999
2 42804  86.4005  40.0928 0002240  86.4748 273.6704 14.34219722330540
IRIDIUM 120             
1 42805U 17039C   23290.47480024  .00000293  00000+0  97592-4 0  9993
2 42805  86.4021   8.9730 0002094  92.4252 267.7184 14.34219829331610
IRIDIUM 115             
1 42806U 17039D   23291.47791552  .00000772  00000+0  22303-3 0  9995
2 42806  86.4557   8.5444 0001981  89.5027 270.6401 14.43355204333967
IRIDIUM 118             
1 42807U 17039E   23290.55433859  .00000514  00000+0  17643-3 0  9992
2 42807  86.4004  40.5190 0002163  93.4047 266.7397 14.34218143330392
IRIDIUM 117             
1 42808U 17039F   23291.55012130  .00000117  00000+0  34828-4 0  9993
2 42808  86.4002  40.0694 0001967  94.9442 265.1979 14.34214192330570
